NORAD_CAT_ID,OBJECT_NAME,OBJECT_TYPE,EPOCH,MEAN_MOTION,ECCENTRICITY,INCLINATION,RA_OF_ASC_NODE,ARG_OF_PERICENTER,MEAN_ANOMALY,BSTAR,MEAN_MOTION_DOT,MEAN_MOTION_DDOT,TLE_LINE0,TLE_LINE1,TLE_LINE2,SEMIMAJOR_AXIS,PERIOD,APOGEE,PERIGEE,DECAYED
52295.0,STARLINK-3765,PAYLOAD,2022-07-07 02:53:04,15.26181925,0.0002432,53.2166,2.2654,33.1411,326.974,-0.0084824,-0.00216181,0.0,0 STARLINK-3765,1 52295U 22041AL  22188.12018887 -.00216181  00000-0 -84824-2 0  9997,2 52295  53.2166   2.2654 0002432  33.1411 326.9740 15.26181925 13185,6865.376,94.353,488.91,485.571,0.0
52295.0,STARLINK-3765,PAYLOAD,2022-07-07 14:00:01,15.24111391,0.0001273,53.2178,0.1212,67.2175,318.7751,-0.031604,-0.00725368,0.0,0 STARLINK-3765,1 52295U 22041AL  22188.58334491 -.00725368  00000-0 -31604-1 0  9998,2 52295  53.2178   0.1212 0001273  67.2175 318.7751 15.24111391 13259,6871.592,94.481,494.332,492.582,0.0
52295.0,STARLINK-3765,PAYLOAD,2022-07-07 22:00:00,15.2359829,0.0001334,53.2174,358.5906,61.4204,354.2064,-0.031841,-0.0072005,0.0,0 STARLINK-3765,1 52295U 22041AL  22188.91667824 -.00720050  00000-0 -31841-1 0  9990,2 52295  53.2174 358.5906 0001334  61.4204 354.2064 15.23598290  1303,6873.135,94.513,495.917,494.083,0.0
52295.0,STARLINK-3765,PAYLOAD,2022-07-08 14:00:01,15.22580899,0.0001369,53.2176,355.529,67.1804,45.8755,-0.03305,-0.00724736,0.0,0 STARLINK-3765,1 52295U 22041AL  22189.58334491 -.00724736  00000-0 -33050-1 0  9994,2 52295  53.2176 355.5290 0001369  67.1804  45.8755 15.22580899  1300,6876.196,94.576,499.002,497.12,0.0
52295.0,STARLINK-3765,PAYLOAD,2022-07-08 22:00:01,15.22066687,0.0001330999999999,53.2174,354.0019,76.298,64.6174,-0.03318,-0.00717105,0.0,0 STARLINK-3765,1 52295U 22041AL  22189.91668981 -.00717105  00000-0 -33180-1 0  9991,2 52295  53.2174 354.0019 0001331  76.2980  64.6174 15.22066687 13464,6877.745,94.608,500.525,498.694,0.0
52295.0,STARLINK-3765,PAYLOAD,2022-07-09 14:00:01,15.210497199999995,0.0001449,53.2177,350.9478,68.5075,126.0966,-0.034462,-0.00722406,0.0,0 STARLINK-3765,1 52295U 22041AL  22190.58334491 -.00722406  00000-0 -34462-1 0  9996,2 52295  53.2177 350.9478 0001449  68.5075 126.0966 15.21049720  1300,6880.81,94.671,503.672,501.67800000000005,0.0
52295.0,STARLINK-3765,PAYLOAD,2022-07-09 20:00:01,15.20667361,0.0001335,53.2176,349.8052,80.3044,43.8242,-0.034863,-0.00722609,0.0,0 STARLINK-3765,1 52295U 22041AL  22190.83334491 -.00722609  00000-0 -34863-1 0  9994,2 52295  53.2176 349.8052 0001335  80.3044  43.8242 15.20667361  1305,6881.9630000000025,94.695,504.747,502.91,0.0
52295.0,STARLINK-3765,PAYLOAD,2022-07-10 14:00:01,15.19519464,0.0001353,53.2176,346.3773,76.1556,194.4811,-0.035991,-0.00721412,0.0,0 STARLINK-3765,1 52295U 22041AL  22191.58334491 -.00721412  00000-0 -35991-1 0  9991,2 52295  53.2176 346.3773 0001353  76.1556 194.4811 15.19519464  1301,6885.429,94.767,508.225,506.362,0.0
52295.0,STARLINK-3765,PAYLOAD,2022-07-10 22:00:00,15.19009178,0.0001264999999999,53.2172,344.8569,95.0229,199.7319,-0.036463,-0.00720161,0.0,0 STARLINK-3765,1 52295U 22041AL  22191.91667824 -.00720161  00000-0 -36463-1 0  9992,2 52295  53.2172 344.8569 0001265  95.0229 199.7319 15.19009178 13762,6886.971,94.799,509.707,507.965,0.0
52295.0,STARLINK-3765,PAYLOAD,2022-07-11 14:00:01,15.17990117,0.0001261,53.2176,341.8173,76.3866,264.7675,-0.03767,-0.00722171,0.0,0 STARLINK-3765,1 52295U 22041AL  22192.58334491 -.00722171  00000-0 -37670-1 0  9991,2 52295  53.2176 341.8173 0001261  76.3866 264.7675 15.17990117  1304,6890.053000000001,94.862,512.7869999999998,511.049,0.0
52295.0,STARLINK-3765,PAYLOAD,2022-07-11 22:00:00,15.17480154,0.0001194,53.2172,340.3004,95.4186,268.0152,-0.038188,-0.00721437,0.0,0 STARLINK-3765,1 52295U 22041AL  22192.91667824 -.00721437  00000-0 -38188-1 0  9996,2 52295  53.2172 340.3004 0001194  95.4186 268.0152 15.17480154  1301,6891.596,94.894,514.284,512.638,0.0
52295.0,STARLINK-3765,PAYLOAD,2022-07-12 14:00:01,15.16460506,0.000131,53.2176,337.2682,69.2025,336.9541,-0.039409,-0.00722885,0.0,0 STARLINK-3765,1 52295U 22041AL  22193.58334491 -.00722885  00000-0 -39409-1 0  9996,2 52295  53.2176 337.2682 0001310  69.2025 336.9541 15.16460506  1308,6894.685,94.958,517.453,515.6469999999998,0.0
52295.0,STARLINK-3765,PAYLOAD,2022-07-12 22:00:00,15.15949846,0.0001214,53.2172,335.7547,91.7494,334.8488,-0.039864,-0.00720754,0.0,0 STARLINK-3765,1 52295U 22041AL  22193.91667824 -.00720754  00000-0 -39864-1 0  9990,2 52295  53.2172 335.7547 0001214  91.7494 334.8488 15.15949846  1305,6896.233,94.99,518.936,517.261,0.0
52295.0,STARLINK-3765,PAYLOAD,2022-07-13 14:00:01,15.14929925,0.0001357,53.2175,332.7298,73.618,32.0262,-0.04112,-0.00722062,0.0,0 STARLINK-3765,1 52295U 22041AL  22194.58334491 -.00722062  00000-0 -41120-1 0  9997,2 52295  53.2175 332.7298 0001357  73.6180  32.0262 15.14929925  1309,6899.328,95.054,522.13,520.257,0.0
52295.0,STARLINK-3765,PAYLOAD,2022-07-13 22:00:00,15.14419779,0.0001303,53.2172,331.2196,90.0265,34.221,-0.041637,-0.00720713,0.0,0 STARLINK-3765,1 52295U 22041AL  22194.91667824 -.00720713  00000-0 -41637-1 0  9997,2 52295  53.2172 331.2196 0001303  90.0265  34.2210 15.14419779 14228,6900.878000000002,95.086,523.6419999999998,521.8430000000002,0.0
52295.0,STARLINK-3765,PAYLOAD,2022-07-14 14:00:01,15.13399007,0.000144,53.2174,328.2018,72.9331,86.684,-0.042844,-0.00720525,0.0,0 STARLINK-3765,1 52295U 22041AL  22195.58334491 -.00720525  00000-0 -42844-1 0  9994,2 52295  53.2174 328.2018 0001440  72.9331  86.6840 15.13399007  1309,6903.98,95.15,526.839,524.851,0.0
52295.0,STARLINK-3765,PAYLOAD,2022-07-14 22:00:00,15.12890232,0.0001366,53.2172,326.6951,85.8302,90.5514,-0.043537,-0.0072167,0.0,0 STARLINK-3765,1 52295U 22041AL  22195.91667824 -.00721670  00000-0 -43537-1 0  9992,2 52295  53.2172 326.6951 0001366  85.8302  90.5514 15.12890232 14371,6905.528,95.182,528.336,526.45,0.0
52295.0,STARLINK-3765,PAYLOAD,2022-07-15 14:00:01,15.11868336,0.0001453999999999,53.2174,323.6847,74.7,133.3745,-0.04464,-0.00719228,0.0,0 STARLINK-3765,1 52295U 22041AL  22196.58334491 -.00719228  00000-0 -44640-1 0  9999,2 52295  53.2174 323.6847 0001454  74.7000 133.3745 15.11868336  1304,6908.639,95.246,531.509,529.5,0.0
52295.0,STARLINK-3765,PAYLOAD,2022-07-15 22:00:00,15.11361128,0.0001372,53.2172,322.1814,94.911,128.0893,-0.045557,-0.00723364,0.0,0 STARLINK-3765,1 52295U 22041AL  22196.91667824 -.00723364  00000-0 -45557-1 0  9999,2 52295  53.2172 322.1814 0001372  94.9110 128.0893 15.11361128  1307,6910.185,95.278,532.998,531.102,0.0
52295.0,STARLINK-3765,PAYLOAD,2022-07-16 06:00:00,15.10850154,0.0001418,53.2172,320.6776,72.4345,164.8813,-0.046167,-0.00722739,0.0,0 STARLINK-3765,1 52295U 22041AL  22197.25001157 -.00722739  00000-0 -46167-1 0  9991,2 52295  53.2172 320.6776 0001418  72.4345 164.8813 15.10850154 14573,6911.743,95.311,534.5880000000002,532.628,0.0
52295.0,STARLINK-3765,PAYLOAD,2022-07-16 14:00:01,15.10338297,0.0001549,53.2173,319.1783,61.0471,189.9695,-0.046558,-0.00718864,0.0,0 STARLINK-3765,1 52295U 22041AL  22197.58334491 -.00718864  00000-0 -46558-1 0  9995,2 52295  53.2173 319.1783 0001549  61.0471 189.9695 15.10338297  1306,6913.304,95.343,536.24,534.099,0.0
52295.0,STARLINK-3765,PAYLOAD,2022-07-16 22:00:00,15.09833203,0.0001330999999999,53.2172,317.6784,82.4472,181.6563,-0.047835,-0.00727644,0.0,0 STARLINK-3765,1 52295U 22041AL  22197.91667824 -.00727644  00000-0 -47835-1 0  9996,2 52295  53.2172 317.6784 0001331  82.4472 181.6563 15.09833203  1304,6914.846,95.375,537.632,535.7909999999998,0.0
52295.0,STARLINK-3765,PAYLOAD,2022-07-17 14:00:01,15.08848193,0.0001460999999999,53.2173,314.683,69.2472,219.2513,-0.0012204,-0.00019662,0.0,0 STARLINK-3765,1 52295U 22041AL  22198.58334491 -.00019662  00000-0 -12204-2 0  9998,2 52295  53.2173 314.6830 0001461  69.2472 219.2513 15.08848193 14772,6917.855,95.437,540.731,538.71,0.0
52295.0,STARLINK-3765,PAYLOAD,2022-07-17 22:00:00,15.08838975,0.0001437,53.2172,313.1863,63.8844,236.2108,-0.00028619,-4.84e-05,0.0,0 STARLINK-3765,1 52295U 22041AL  22198.91667824 -.00004840  00000-0 -28619-3 0  9994,2 52295  53.2172 313.1863 0001437  63.8844 236.2108 15.08838975  1308,6917.884,95.438,540.743,538.754,0.0
52295.0,STARLINK-3765,PAYLOAD,2022-07-18 14:00:01,15.08838614,0.0001498,53.212,310.2013,61.3681,261.8815,-0.0034624,-0.0005497,0.0,0 STARLINK-3765,1 52295U 22041AL  22199.58334491 -.00054970  00000-0 -34624-2 0  9990,2 52295  53.2120 310.2013 0001498  61.3681 261.8815 15.08838614  1304,6917.885,95.438,540.786,538.7130000000002,0.0
52295.0,STARLINK-3765,PAYLOAD,2022-07-18 22:00:00,15.08802341,0.0001403,53.2118,308.7043,57.2645,277.5656,0.00071095,0.00011033,0.0,0 STARLINK-3765,1 52295U 22041AL  22199.91667824  .00011033  00000-0  71095-3 0  9991,2 52295  53.2118 308.7043 0001403  57.2645 277.5656 15.08802341 14978,6917.995,95.44,540.831,538.89,0.0
52295.0,STARLINK-3765,PAYLOAD,2022-07-19 14:00:01,15.08881322,0.0001504,53.212,305.7117,59.9822,297.9867,-0.0016817,-0.00026983,0.0,0 STARLINK-3765,1 52295U 22041AL  22200.58334491 -.00026983  00000-0 -16817-2 0  9990,2 52295  53.2120 305.7117 0001504  59.9822 297.9867 15.08881322 15076,6917.754,95.435,540.66,538.5790000000002,0.0
52295.0,STARLINK-3765,PAYLOAD,2022-07-19 22:00:00,15.08863312,0.0001450999999999,53.2135,304.2121,56.6753,312.9218,-0.0011776,-0.00018992,0.0,0 STARLINK-3765,1 52295U 22041AL  22200.91667824 -.00018992  00000-0 -11776-2 0  9996,2 52295  53.2135 304.2121 0001451  56.6753 312.9218 15.08863312  1307,6917.809,95.436,540.678,538.67,0.0
52295.0,STARLINK-3765,PAYLOAD,2022-07-20 14:00:01,15.08873991,0.000149,53.2135,301.2218,60.2581,332.63199999999995,-0.0025129,-0.00040096,0.0,0 STARLINK-3765,1 52295U 22041AL  22201.58334491 -.00040096  00000-0 -25129-2 0  9998,2 52295  53.2135 301.2218 0001490  60.2581 332.6320 15.08873991  1301,6917.776,95.435,540.672,538.611,0.0
